{
  "type": "FeatureCollection",
  "features": [
    {
      "type": "Feature",
      "properties": {
        "buurt": "Centrum",
        "buurtnaam": "Heerlen Centrum",
        "inwoners": 1250,
        "huishoudens": 580,
        "werkloosheid_pct": 4.2,
        "inkomen_mediaan": 32500
      },
      "geometry": {
        "type": "Polygon",
        "coordinates": [
          [
            [5.965, 50.885],
            [5.975, 50.885],
            [5.975, 50.895],
            [5.965, 50.895],
            [5.965, 50.885]
          ]
        ]
      }
    },
    {
      "type": "Feature",
      "properties": {
        "buurt": "Noord",
        "buurtnaam": "Heerlen Noord",
        "inwoners": 2100,
        "huishoudens": 920,
        "werkloosheid_pct": 5.8,
        "inkomen_mediaan": 28900
      },
      "geometry": {
        "type": "Polygon",
        "coordinates": [
          [
            [5.95, 50.895],
            [5.985, 50.895],
            [5.985, 50.910],
            [5.95, 50.910],
            [5.95, 50.895]
          ]
        ]
      }
    },
    {
      "type": "Feature",
      "properties": {
        "buurt": "Oost",
        "buurtnaam": "Heerlen Oost",
        "inwoners": 1850,
        "huishoudens": 780,
        "werkloosheid_pct": 3.9,
        "inkomen_mediaan": 35200
      },
      "geometry": {
        "type": "Polygon",
        "coordinates": [
          [
            [5.975, 50.875],
            [6.005, 50.875],
            [6.005, 50.895],
            [5.975, 50.895],
            [5.975, 50.875]
          ]
        ]
      }
    },
    {
      "type": "Feature",
      "properties": {
        "buurt": "West",
        "buurtnaam": "Heerlen West",
        "inwoners": 1680,
        "huishoudens": 710,
        "werkloosheid_pct": 6.1,
        "inkomen_mediaan": 27500
      },
      "geometry": {
        "type": "Polygon",
        "coordinates": [
          [
            [5.95, 50.875],
            [5.975, 50.875],
            [5.975, 50.890],
            [5.95, 50.890],
            [5.95, 50.875]
          ]
        ]
      }
    },
    {
      "type": "Feature",
      "properties": {
        "buurt": "Zuid",
        "buurtnaam": "Heerlen Zuid",
        "inwoners": 2340,
        "huishoudens": 1050,
        "werkloosheid_pct": 7.3,
        "inkomen_mediaan": 26800
      },
      "geometry": {
        "type": "Polygon",
        "coordinates": [
          [
            [5.95, 50.860],
            [6.0, 50.860],
            [6.0, 50.875],
            [5.95, 50.875],
            [5.95, 50.860]
          ]
        ]
      }
    }
  ]
}
